[Satellite]
VERSION=1.1
NAME=MOLNIYA 3-13
NICKNAME=MOLNIYA 3-13
TLE1=1 11896U 80063A   17185.62306124 -.00000376  00000-0 -12002-3 0  9994
TLE2=2 11896  62.7059  37.5086 7454145 266.5947  14.3546  2.00619596270824
